[{"OBJECT_NAME":"STARLINK-36841","OBJECT_ID":"2026-037AE","EPOCH":"2026-03-07T14:00:01.000224","MEAN_MOTION":15.8916898,"ECCENTRICITY":0.000131,"INCLINATION":42.9992,"RA_OF_ASC_NODE":211.2653,"ARG_OF_PERICENTER":271.9258,"MEAN_ANOMALY":316.7661,"EPHEMERIS_TYPE":0,"CLASSIFICATION_TYPE":"U","NORAD_CAT_ID":67960,"ELEMENT_SET_NO":999,"REV_AT_EPOCH":286,"BSTAR":-0.0057965094,"MEAN_MOTION_DOT":-0.01495726,"MEAN_MOTION_DDOT":0},{"OBJECT_NAME":"STARLINK-36912","OBJECT_ID":"2026-038A","EPOCH":"2026-03-07T14:00:01.000224","MEAN_MOTION":15.94431746,"ECCENTRICITY":0.00013909,"INCLINATION":97.2751,"RA_OF_ASC_NODE":76.7026,"ARG_OF_PERICENTER":94.3722,"MEAN_ANOMALY":122.1272,"EPHEMERIS_TYPE":0,"CLASSIFICATION_TYPE":"U","NORAD_CAT_ID":67961,"ELEMENT_SET_NO":999,"REV_AT_EPOCH":286,"BSTAR":-0.0043286023,"MEAN_MOTION_DOT":-0.01605655,"MEAN_MOTION_DDOT":0.0007418459},{"OBJECT_NAME":"STARLINK-36881","OBJECT_ID":"2026-038B","EPOCH":"2026-03-07T14:00:01.000224","MEAN_MOTION":15.94529234,"ECCENTRICITY":0.00013312,"INCLINATION":97.2749,"RA_OF_ASC_NODE":76.7033,"ARG_OF_PERICENTER":98.1705,"MEAN_ANOMALY":120.7426,"EPHEMERIS_TYPE":0,"CLASSIFICATION_TYPE":"U","NORAD_CAT_ID":67962,"ELEMENT_SET_NO":999,"REV_AT_EPOCH":286,"BSTAR":-0.0043569919,"MEAN_MOTION_DOT":-0.01624296,"MEAN_MOTION_DDOT":0.00075868821},{"OBJECT_NAME":"STARLINK-36357","OBJECT_ID":"2026-038C","EPOCH":"2026-03-07T14:00:01.000224","MEAN_MOTION":15.947749,"ECCENTRICITY":0.00013808,"INCLINATION":97.2744,"RA_OF_ASC_NODE":76.7064,"ARG_OF_PERICENTER":92.6177,"MEAN_ANOMALY":132.8651,"EPHEMERIS_TYPE":0,"CLASSIFICATION_TYPE":"U","NORAD_CAT_ID":67963,"ELEMENT_SET_NO":999,"REV_AT_EPOCH":286,"BSTAR":-0.0042392621,"MEAN_MOTION_DOT":-0.01601362,"MEAN_MOTION_DDOT":0.00074081077},{"OBJECT_NAME":"STARLINK-36349","OBJECT_ID":"2026-038D","EPOCH":"2026-03-07T14:00:01.000224","MEAN_MOTION":15.94650608,"ECCENTRICITY":0.00014566,"INCLINATION":97.2743,"RA_OF_ASC_NODE":76.7045,"ARG_OF_PERICENTER":88.2743,"MEAN_ANOMALY":133.9195,"EPHEMERIS_TYPE":0,"CLASSIFICATION_TYPE":"U","NORAD_CAT_ID":67964,"ELEMENT_SET_NO":999,"REV_AT_EPOCH":286,"BSTAR":-0.0042803821,"MEAN_MOTION_DOT":-0.01606248,"MEAN_MOTION_DDOT":0.00074404881},{"OBJECT_NAME":"STARLINK-36806","OBJECT_ID":"2026-038E","EPOCH":"2026-03-07T14:00:01.000224","MEAN_MOTION":15.94924832,"ECCENTRICITY":0.00013405,"INCLINATION":97.2738,"RA_OF_ASC_NODE":76.7076,"ARG_OF_PERICENTER":96.4262,"MEAN_ANOMALY":132.8732,"EPHEMERIS_TYPE":0,"CLASSIFICATION_TYPE":"U","NORAD_CAT_ID":67965,"ELEMENT_SET_NO":999,"REV_AT_EPOCH":286,"BSTAR":-0.0042176421,"MEAN_MOTION_DOT":-0.01605854,"MEAN_MOTION_DDOT":0.00074584066},{"OBJECT_NAME":"STARLINK-36820","OBJECT_ID":"2026-038F","EPOCH":"2026-03-07T14:00:01.000224","MEAN_MOTION":15.95054043,"ECCENTRICITY":0.00014,"INCLINATION":97.2738,"RA_OF_ASC_NODE":76.7091,"ARG_OF_PERICENTER":101.2916,"MEAN_ANOMALY":131.1977,"EPHEMERIS_TYPE":0,"CLASSIFICATION_TYPE":"U","NORAD_CAT_ID":67966,"ELEMENT_SET_NO":999,"REV_AT_EPOCH":286,"BSTAR":-0.004204678,"MEAN_MOTION_DOT":-0.01611887,"MEAN_MOTION_DDOT":0.00075207041},{"OBJECT_NAME":"STARLINK-36819","OBJECT_ID":"2026-038G","EPOCH":"2026-03-07T14:00:01.000224","MEAN_MOTION":15.95179742,"ECCENTRICITY":0.00012869,"INCLINATION":97.2736,"RA_OF_ASC_NODE":76.7105,"ARG_OF_PERICENTER":97.5549,"MEAN_ANOMALY":138.3764,"EPHEMERIS_TYPE":0,"CLASSIFICATION_TYPE":"U","NORAD_CAT_ID":67967,"ELEMENT_SET_NO":999,"REV_AT_EPOCH":286,"BSTAR":-0.0041397398,"MEAN_MOTION_DOT":-0.01597783,"MEAN_MOTION_DDOT":0.00074087149},{"OBJECT_NAME":"STARLINK-36812","OBJECT_ID":"2026-038H","EPOCH":"2026-03-07T14:00:01.000224","MEAN_MOTION":15.95288498,"ECCENTRICITY":0.00013385,"INCLINATION":97.2732,"RA_OF_ASC_NODE":76.7113,"ARG_OF_PERICENTER":98.3765,"MEAN_ANOMALY":140.4959,"EPHEMERIS_TYPE":0,"CLASSIFICATION_TYPE":"U","NORAD_CAT_ID":67968,"ELEMENT_SET_NO":999,"REV_AT_EPOCH":286,"BSTAR":-0.0040954197,"MEAN_MOTION_DOT":-0.01589965,"MEAN_MOTION_DDOT":0.00073499322},{"OBJECT_NAME":"STARLINK-36709","OBJECT_ID":"2026-038J","EPOCH":"2026-03-07T14:00:01.000224","MEAN_MOTION":15.9555984,"ECCENTRICITY":0.00012233,"INCLINATION":97.2732,"RA_OF_ASC_NODE":76.7145,"ARG_OF_PERICENTER":97.9927,"MEAN_ANOMALY":147.9166,"EPHEMERIS_TYPE":0,"CLASSIFICATION_TYPE":"U","NORAD_CAT_ID":67969,"ELEMENT_SET_NO":999,"REV_AT_EPOCH":286,"BSTAR":-0.0040026315,"MEAN_MOTION_DOT":-0.01576753,"MEAN_MOTION_DDOT":0.00072576617},{"OBJECT_NAME":"STARLINK-36319","OBJECT_ID":"2026-038K","EPOCH":"2026-03-07T14:00:01.000224","MEAN_MOTION":15.95427221,"ECCENTRICITY":0.00013435,"INCLINATION":97.273,"RA_OF_ASC_NODE":76.7128,"ARG_OF_PERICENTER":93.331,"MEAN_ANOMALY":149.0302,"EPHEMERIS_TYPE":0,"CLASSIFICATION_TYPE":"U","NORAD_CAT_ID":67970,"ELEMENT_SET_NO":999,"REV_AT_EPOCH":283,"BSTAR":-0.0040655922,"MEAN_MOTION_DOT":-0.01590111,"MEAN_MOTION_DDOT":0.00073619453},{"OBJECT_NAME":"STARLINK-36710","OBJECT_ID":"2026-038L","EPOCH":"2026-03-07T14:00:01.000224","MEAN_MOTION":15.957347,"ECCENTRICITY":0.00012171,"INCLINATION":97.2727,"RA_OF_ASC_NODE":76.7164,"ARG_OF_PERICENTER":102.4857,"MEAN_ANOMALY":147.7359,"EPHEMERIS_TYPE":0,"CLASSIFICATION_TYPE":"U","NORAD_CAT_ID":67971,"ELEMENT_SET_NO":999,"REV_AT_EPOCH":286,"BSTAR":-0.0039821641,"MEAN_MOTION_DOT":-0.01583367,"MEAN_MOTION_DDOT":0.00073277993},{"OBJECT_NAME":"STARLINK-36894","OBJECT_ID":"2026-038M","EPOCH":"2026-03-07T14:00:01.000224","MEAN_MOTION":15.95871917,"ECCENTRICITY":0.00012621,"INCLINATION":97.2723,"RA_OF_ASC_NODE":76.7178,"ARG_OF_PERICENTER":93.3945,"MEAN_ANOMALY":160.3742,"EPHEMERIS_TYPE":0,"CLASSIFICATION_TYPE":"U","NORAD_CAT_ID":67972,"ELEMENT_SET_NO":999,"REV_AT_EPOCH":286,"BSTAR":-0.0039355017,"MEAN_MOTION_DOT":-0.01576464,"MEAN_MOTION_DDOT":0.00072791843},{"OBJECT_NAME":"STARLINK-36900","OBJECT_ID":"2026-038N","EPOCH":"2026-03-07T14:00:01.000224","MEAN_MOTION":15.96146195,"ECCENTRICITY":0.00012013,"INCLINATION":97.2721,"RA_OF_ASC_NODE":76.7206,"ARG_OF_PERICENTER":105.191,"MEAN_ANOMALY":155.6757,"EPHEMERIS_TYPE":0,"CLASSIFICATION_TYPE":"U","NORAD_CAT_ID":67973,"ELEMENT_SET_NO":999,"REV_AT_EPOCH":286,"BSTAR":-0.0038401297,"MEAN_MOTION_DOT":-0.0156128,"MEAN_MOTION_DDOT":0.00071703964},{"OBJECT_NAME":"STARLINK-36901","OBJECT_ID":"2026-038P","EPOCH":"2026-03-07T14:00:01.000224","MEAN_MOTION":15.96004373,"ECCENTRICITY":0.0001316,"INCLINATION":97.2722,"RA_OF_ASC_NODE":76.719,"ARG_OF_PERICENTER":96.8564,"MEAN_ANOMALY":160.2789,"EPHEMERIS_TYPE":0,"CLASSIFICATION_TYPE":"U","NORAD_CAT_ID":67974,"ELEMENT_SET_NO":999,"REV_AT_EPOCH":286,"BSTAR":-0.0039043691,"MEAN_MOTION_DOT":-0.01575189,"MEAN_MOTION_DDOT":0.00072784727},{"OBJECT_NAME":"STARLINK-36883","OBJECT_ID":"2026-038Q","EPOCH":"2026-03-07T14:00:01.000224","MEAN_MOTION":15.96716917,"ECCENTRICITY":0.00011873,"INCLINATION":97.2714,"RA_OF_ASC_NODE":76.7267,"ARG_OF_PERICENTER":95.1675,"MEAN_ANOMALY":180.1053,"EPHEMERIS_TYPE":0,"CLASSIFICATION_TYPE":"U","NORAD_CAT_ID":67975,"ELEMENT_SET_NO":999,"REV_AT_EPOCH":286,"BSTAR":-0.0037137017,"MEAN_MOTION_DOT":-0.01557226,"MEAN_MOTION_DDOT":0.00071795056},{"OBJECT_NAME":"STARLINK-36880","OBJECT_ID":"2026-038R","EPOCH":"2026-03-07T14:00:01.000224","MEAN_MOTION":15.962897,"ECCENTRICITY":0.00012312,"INCLINATION":97.2719,"RA_OF_ASC_NODE":76.7219,"ARG_OF_PERICENTER":99.29,"MEAN_ANOMALY":165.2053,"EPHEMERIS_TYPE":0,"CLASSIFICATION_TYPE":"U","NORAD_CAT_ID":67976,"ELEMENT_SET_NO":999,"REV_AT_EPOCH":286,"BSTAR":-0.003816186,"MEAN_MOTION_DOT":-0.01563575,"MEAN_MOTION_DDOT":0.00072009759},{"OBJECT_NAME":"STARLINK-36904","OBJECT_ID":"2026-038S","EPOCH":"2026-03-07T14:00:01.000224","MEAN_MOTION":15.96571654,"ECCENTRICITY":0.00011727,"INCLINATION":97.2713,"RA_OF_ASC_NODE":76.7247,"ARG_OF_PERICENTER":90.3972,"MEAN_ANOMALY":181.2618,"EPHEMERIS_TYPE":0,"CLASSIFICATION_TYPE":"U","NORAD_CAT_ID":67977,"ELEMENT_SET_NO":999,"REV_AT_EPOCH":286,"BSTAR":-0.0037322539,"MEAN_MOTION_DOT":-0.01552783,"MEAN_MOTION_DDOT":0.00071304419},{"OBJECT_NAME":"STARLINK-36364","OBJECT_ID":"2026-038T","EPOCH":"2026-03-07T14:00:01.000224","MEAN_MOTION":15.97060185,"ECCENTRICITY":0.00011259,"INCLINATION":97.2707,"RA_OF_ASC_NODE":76.7301,"ARG_OF_PERICENTER":93.1107,"MEAN_ANOMALY":190.6374,"EPHEMERIS_TYPE":0,"CLASSIFICATION_TYPE":"U","NORAD_CAT_ID":67978,"ELEMENT_SET_NO":999,"REV_AT_EPOCH":286,"BSTAR":-0.0036248058,"MEAN_MOTION_DOT":-0.0154866,"MEAN_MOTION_DDOT":0.00071326405},{"OBJECT_NAME":"STARLINK-36359","OBJECT_ID":"2026-038U","EPOCH":"2026-03-07T14:00:01.000224","MEAN_MOTION":15.96410839,"ECCENTRICITY":0.00012197,"INCLINATION":97.2716,"RA_OF_ASC_NODE":76.7228,"ARG_OF_PERICENTER":100.2782,"MEAN_ANOMALY":167.2409,"EPHEMERIS_TYPE":0,"CLASSIFICATION_TYPE":"U","NORAD_CAT_ID":67979,"ELEMENT_SET_NO":999,"REV_AT_EPOCH":286,"BSTAR":-0.0037854214,"MEAN_MOTION_DOT":-0.01561174,"MEAN_MOTION_DDOT":0.00071897423},{"OBJECT_NAME":"STARLINK-36882","OBJECT_ID":"2026-038V","EPOCH":"2026-03-07T14:00:01.000224","MEAN_MOTION":15.96898992,"ECCENTRICITY":0.00012052,"INCLINATION":97.2708,"RA_OF_ASC_NODE":76.7282,"ARG_OF_PERICENTER":101.5447,"MEAN_ANOMALY":178.1782,"EPHEMERIS_TYPE":0,"CLASSIFICATION_TYPE":"U","NORAD_CAT_ID":67980,"ELEMENT_SET_NO":999,"REV_AT_EPOCH":286,"BSTAR":-0.0036683201,"MEAN_MOTION_DOT":-0.01553524,"MEAN_MOTION_DDOT":0.00071618246},{"OBJECT_NAME":"STARLINK-36874","OBJECT_ID":"2026-038W","EPOCH":"2026-03-07T14:00:01.000224","MEAN_MOTION":15.97176851,"ECCENTRICITY":0.00012067,"INCLINATION":97.2707,"RA_OF_ASC_NODE":76.7312,"ARG_OF_PERICENTER":88.9324,"MEAN_ANOMALY":197.767,"EPHEMERIS_TYPE":0,"CLASSIFICATION_TYPE":"U","NORAD_CAT_ID":67981,"ELEMENT_SET_NO":999,"REV_AT_EPOCH":286,"BSTAR":-0.0036012398,"MEAN_MOTION_DOT":-0.01548425,"MEAN_MOTION_DDOT":0.00071396113}]
